#cP2023  3 14  0  0  0.00000000      96 ORBIT IGS20 HLM  IGS
## 2253 172800.00000000   900.00000000 60017 0.0000000000000
+   32   G01G02G03G04G05G06G07G08G09G10G11G12G13G14G15G16G17
+        G18G19G20G21G22G23G24G25G26G27G28G29G30G31G32  0  0
+          0  0  0  0  0  0  0  0  0  0  0  0  0  0  0  0  0
+          0  0  0  0  0  0  0  0  0  0  0  0  0  0  0  0  0
+          0  0  0  0  0  0  0  0  0  0  0  0  0  0  0  0  0
++         2  3  2  2  2  2  2  2  2  2  2  2  2  2  2  2  2
++         2  2  2  2  3  2  2  2  2  2  3  2  2  2  2  0  0
++         0  0  0  0  0  0  0  0  0  0  0  0  0  0  0  0  0
++         0  0  0  0  0  0  0  0  0  0  0  0  0  0  0  0  0
++         0  0  0  0  0  0  0  0  0  0  0  0  0  0  0  0  0
%c G  cc GPS ccc cccc cccc cccc cccc ccccc ccccc ccccc ccccc
%c cc cc ccc ccc cccc cccc cccc cccc ccccc ccccc ccccc ccccc
%f  1.2500000  1.025000000  0.00000000000  0.000000000000000
%f  0.0000000  0.000000000  0.00000000000  0.000000000000000
%i    0    0    0    0      0      0      0      0         0
%i    0    0    0    0      0      0      0      0         0
/* RAPID ORBIT COMBINATION FROM WEIGHTED AVERAGE OF:        
/* cod emr esa gfz grg jpl ngs sio usn whu                  
/* REFERENCED TO IGS TIME (IGST) AND TO WEIGHTED MEAN POLE: 
/* PCV:IGS20_2233 OL/AL:FES2014b NONE     Y  ORB:CMB CLK:CMB
*  2023  3 14  9 45  0.00000000
PG01 -17943.833158  -7894.655619  17767.320742    202.951266  5  5  6 110       
PG02  17807.322305   2709.227422 -18816.209087   -614.439657  8  9  7  92       
PG03 -17333.375730   3884.499068  19585.145379   -350.016040  7  6  5 110       
PG04 -26616.459335   -271.376677   -486.463376     -7.399035  9  7  7  70       
PG05  10225.194590  12458.504995 -21258.934905   -119.411984  6  4  5 110       
PG06   2766.926822  22601.830396  13655.498305    581.110365  5  7  5 102       
PG07 -13515.959171   7046.916267 -21319.448844    223.389732  7  6  5 117       
PG08 -23178.357436  -7100.540976 -11364.628737   -112.852043  8  8  6  99       
PG09 -22942.706944   8280.593130 -10640.165457   -200.910207  6  4  4  92       
PG10  10628.828061 -23920.839000   3544.936555    -28.489481  1  2  2 104       
PG11  12100.872060  23660.858627    442.056593   -129.964754 10  9  4 106       
PG12  17033.092634   -647.749374  20062.081793   -351.344734  5  3  4 119       
PG13  17052.895540  13126.439008 -15871.200524    490.266406  3  5  3 102       
PG14 -13255.322681  22919.358257    746.655575     -4.308923  4  4  2  70       
PG15  23882.868347   4894.534118 -11309.789746     21.435638  7  5  5  97       
PG16  -6973.039235 -15263.016043 -20779.974978   -515.481283  7  7  6  94       
PG17 -11697.188161  13196.522209  20324.495550    705.387322     5  5 109       
PG18  10514.120935 -11252.139764 -21621.155579   -179.070932  3  7  7  92       
PG19   -301.638453  14840.614793  21802.320012    289.846780  6  4  6 106       
PG20   4089.876444  21331.017924 -15390.410025    445.122552  5  2  2 105       
PG21 -20101.335975 -14118.407913  11678.541754    154.328015 11  7  8  96       
PG22  -3520.819593 -15451.921229  21776.075145    444.940659  5 10  5  72       
PG23  16366.958823 -19119.421572  -8245.152104     10.556429  4  5  4  87       
PG24  20092.053787  10542.267783  13783.582428   -111.107432  4  5  5 114       
PG25  18335.475723 -11621.840895  14803.458834    427.569779  6  2  4 127       
PG26   1670.256367 -23635.483037 -11762.847936    241.963359  7  5  5  83       
PG27 -13974.220474 -12847.845849 -18987.550692     81.439222  8  8  5  71       
PG28  -1796.179838 -21940.551050  14833.942781     42.551953  7  8  7 121       
PG29  25158.165707  -3689.668865  -7862.901699   -590.765804  5  4  4  95       
PG30  -4371.925168  18857.355547 -17972.164370   -526.950261  5  4  6  97       
PG31  -4868.861786 -23642.718637  10398.515006   -211.554476  8  4  5 108       
PG32   7812.465569 -14737.087680  20797.724939   -423.002180  5  6  4 117       
*  2023  3 14 10  0  0.00000000
PG01 -18887.819366  -9620.506780  15903.760950    202.947840  6  5  6 109       
PG02  19004.823186   4544.339976 -17256.385157   -614.436930  8  9  7 107       
PG03 -16337.342174   1777.036384  20716.693383   -350.010073  7  6  5 120       
PG04 -26512.856721   -513.830992   2363.802898     -7.391277  9  7  7 102       
PG05   9167.227204  14557.026347 -20372.372736   -119.413495  6  3  4 109       
PG06   1763.256978  21253.505843  15832.958049    581.112943  5  7  4 101       
PG07 -14858.186563   4914.311542 -21071.936778    223.382922  6  6  5 114       
PG08 -21783.851177  -7383.530979 -13681.293117   -112.853978  8  8  6 102       
PG09 -24017.251350   8112.497294  -8075.474422   -200.903498  5  3  5  98       
PG10  10935.239380 -24012.839945    651.181159    -28.491387  2  3  3 107       
PG11  11787.502915  23594.708477   3294.024990   -129.974995 10  9  3 117       
PG12  15848.990779   1448.594156  20966.325858   -351.348608  6  2  4 112       
PG13  15165.855921  13083.719981 -17716.738868    490.271797  4  5  2 112       
PG14 -13477.809428  22704.891668  -2092.309782     -4.299793  5  3  2  93       
PG15  22592.296477   5382.723893 -13577.854057     21.438801  7  5  5 108       
PG16  -5664.092355 -17113.442421 -19650.099612   -515.479229  7  7  6 102       
PG17 -13854.554654  13072.938685  18983.855176    705.389282  3  5  5  99       
PG18  11840.243308  -9144.181437 -21940.278616   -179.085661  3  7  7 105       
PG19  -2832.327132  14665.775037  21714.968173    289.851594  5  4  5 109       
PG20   3386.800553  22829.456314 -13289.863855    445.120574  5     2 108       
PG21 -20645.278197 -15080.581421   9203.588717    154.327361 11  7  8 104       
PG22  -1108.999246 -15376.345182  22075.314892    444.947255  5 10  6 104       
PG23  16079.687311 -18041.419480 -10843.260809     10.558320  4  5  4  97       
PG24  20804.506757  11876.229051  11553.882481   -111.121177  5  5  5 102       
PG25  17681.341789  -9859.193982  16737.333545    427.572539  6  2  3 133       
PG26   2437.254598 -24616.158798  -9310.946305    241.963362  7  5  4 106       
PG27 -11794.925234 -13032.413468 -20275.527113     81.431564  8  8  5  90       
PG28   -623.460931 -20545.436750  16793.438912     42.561175  8  7  6 120       
PG29  25884.989855  -3474.730442  -5106.909326   -590.767255  5  4  4  72       
PG30  -5666.015809  17108.585313 -19326.631529   -526.948905  5  3  6 108       
PG31  -3934.469462 -22610.484716  12814.102318   -211.555357  8  3  5 111       
PG32  10105.130639 -14757.933891  19742.687999   -423.011954  4  5  3 122       
*  2023  3 14 10 15  0.00000000
PG01 -19796.010725 -11099.155711  13764.610887    202.944469  6  5  5 112       
PG02  20164.736725   6161.299585 -15382.555592   -614.434646  9  9  7 103       
PG03 -15413.242797   -480.002660  21487.036903   -350.004092  7  6  4 117       
PG04 -26103.294170   -783.429809   5173.671222     -7.383503  9  7  7 103       
PG05   8264.745427  16599.131737 -19139.336395   -119.413956  6  3  4  98       
PG06    551.069732  19776.094828  17737.991115    581.115567  5  6  4 104       
PG07 -16271.954124   2896.221693 -20448.772058    223.376015  6  6  5 118       
PG08 -20160.293151  -7772.270356 -15767.781312   -112.855285  8  7  5 106       
PG09 -24804.256107   7962.569188  -5372.505884   -200.896838  5  4  5  89       
PG10  11103.433715 -23817.664537  -2253.978914    -28.492454  3  4  2 102       
PG11  11296.955825  23277.215634   6089.427269   -129.985111  9  8  3 115       
PG12  14736.784885   3676.455084  21499.975012   -351.352931  6  1  4 124       
PG13  13088.699153  13136.930414 -19263.518386    490.276966  5  5  2 114       
PG14 -13570.422385  22214.281496  -4894.960679     -4.290661  5  3  3  77       
PG15  21096.125390   5987.978621 -15621.044858     21.441839  6  5  5 114       
PG16  -4522.621257 -18907.162972 -18186.112995   -515.477542  7  7  6  93       
PG17 -15850.415259  13061.579079  17328.501166    705.391314  5  5  4 109       
PG18  13286.106015  -7100.121929 -21881.680881   -179.100355  4  7  8 102       
PG19  -5339.315409  14626.572903  21245.263328    289.855713  4  3  5 106       
PG20   2823.645985  24119.140711 -10962.436137    445.118597  3     2  98       
PG21 -21056.419885 -15802.120621   6580.702624    154.327664 11  7  8 106       
PG22   1317.777297 -15430.644209  22009.922083    444.953567  6 10  7 107       
PG23  15742.151829 -16686.550105 -13253.236034     10.560128  4  5  4  90       
PG24  21409.045018  12970.952972   9126.106890   -111.134910  6  5  4 102       
PG25  17034.417909  -7877.854003  18373.463247    427.575307  6  2  2 138       
PG26   3058.531780 -25363.546937  -6696.458121    241.963342  7  4  3 110       
PG27  -9502.276484 -13349.216961 -21225.151478     81.423924  8  8  6  94       
PG28    747.236004 -19051.189702  18463.374070     42.570429  8  7  6 120       
PG29  26305.915360  -3290.646599  -2263.532647   -590.769022  4  4  4  91       
PG30  -7118.222000  15314.639346 -20343.454189   -526.947529  6  3  5  98       
PG31  -2800.288015 -21409.549890  15002.188799   -211.556135  7  2  5 115       
PG32  12259.144970 -14882.537286  18350.966395   -423.021717  4  4  2 119       
EOF
